IRIDIUM 138             
1 43071U 17083B   26187.85165569  .00000062  00000+0  15106-4 0  9997
2 43071  86.3995 313.4929 0002101  89.4730 270.6707 14.34218277446959
IRIDIUM 116             
1 43072U 17083C   26187.40133213  .00000343  00000+0  11538-3 0  9996
2 43072  86.3980 313.9683 0002322 100.6789 259.4668 14.34218745446929
IRIDIUM 130             
1 43073U 17083D   26187.85799797  .00000087  00000+0  24021-4 0  9998
2 43073  86.3989 314.0546 0002132 100.4453 259.6983 14.34218303446937
IRIDIUM 151             
1 43074U 17083E   26187.41401688  .00000108  00000+0  31413-4 0  9997
2 43074  86.3984 314.0214 0002217  94.1646 265.9803 14.34218609446897
IRIDIUM 134             
1 43075U 17083F   26187.87068372 -.00000038  00000+0 -20486-4 0  9999
2 43075  86.3981 313.8389 0002052  95.4828 264.6602 14.34217455446923
IRIDIUM 137             
1 43076U 17083G   26187.39498969  .00000111  00000+0  32508-4 0  9994
2 43076  86.3985 314.1305 0002640  97.3462 262.8034 14.34218660446926
IRIDIUM 141             
1 43077U 17083H   26187.38864732  .00000062  00000+0  14974-4 0  9991
2 43077  86.3980 313.9628 0002180  91.8895 268.2550 14.34218071446924
IRIDIUM 153             
1 43078U 17083J   26187.68966779  .00000277  00000+0  91792-4 0  9990
2 43078  86.3964 282.3175 0002113  93.2382 266.9056 14.34218731448073
IRIDIUM 131             
1 43079U 17083K   26187.86434167  .00000011  00000+0 -32544-5 0  9990
2 43079  86.3984 313.9514 0002121  93.3240 266.8199 14.34217791446921
IRIDIUM 144             
1 43249U 18030A   26187.69601137  .00000100  00000+0  28618-4 0  9990
2 43249  86.3964 282.2436 0002299  98.0245 262.1211 14.34218132432932
IRIDIUM 149             
1 43250U 18030B   26187.70235287  .00000108  00000+0  31397-4 0  9999
2 43250  86.3961 282.2075 0002265  93.5688 266.5767 14.34218704432955
IRIDIUM 157             
1 43251U 18030C   26187.72138110  .00000088  00000+0  24201-4 0  9992
2 43251  86.3966 282.2535 0002256  95.4380 264.7073 14.34218420432935
IRIDIUM 140             
1 43252U 18030D   26187.67063907  .00000146  00000+0  44974-4 0  9992
2 43252  86.3963 282.2869 0002229  95.9499 264.1951 14.34219087432983
IRIDIUM 145             
1 43253U 18030E   26187.72771811  .00000111  00000+0  32404-4 0  9996
2 43253  86.3964 282.2354 0002364 102.9496 257.1964 14.34216712432922
IRIDIUM 146             
1 43254U 18030F   26187.77846375  .00000094  00000+0  26666-4 0  9993
2 43254  86.3962 282.2262 0002329  98.0232 262.1229 14.34218735432942
IRIDIUM 148             
1 43255U 18030G   26187.67698377  .00000195  00000+0  62416-4 0  9995
2 43255  86.3966 282.3122 0002340  94.9557 265.1906 14.34217543432964
IRIDIUM 142             
1 43256U 18030H   26187.64526985  .00000276  00000+0  91602-4 0  9997
2 43256  86.3960 282.2135 0002369  98.9410 261.2054 14.34218923432925
IRIDIUM 150             
1 43257U 18030J   26187.68332520  .00000110  00000+0  32293-4 0  9990
2 43257  86.3964 282.3148 0002222  96.4536 263.6913 14.34218642432956
IRIDIUM 143             
1 43258U 18030K   26187.73406522  .00000120  00000+0  35732-4 0  9993
2 43258  86.3968 282.3869 0002270  97.7894 262.3560 14.34217676432898
IRIDIUM 161             
1 43478U 18047C   26187.72028439  .00000273  00000+0  75090-4 0  9991
2 43478  86.4471  80.3035 0002389  79.2434 280.9035 14.43283247427950
IRIDIUM 152             
1 43479U 18047D   26187.84633106  .00000218  00000+0  70645-4 0  9998
2 43479  86.3947  80.1122 0002188  81.9212 278.2232 14.34217891425302
IRIDIUM 147             
1 43480U 18047E   26187.71312309  .00000215  00000+0  69817-4 0  9991
2 43480  86.3948  80.1733 0002281  87.9808 272.1649 14.34217455425282
IRIDIUM 110             
1 43481U 18047F   26187.71946894  .00000235  00000+0  76782-4 0  9995
2 43481  86.3950  80.2631 0002313  76.3409 283.8044 14.34218959425276
IRIDIUM 162             
1 43482U 18047G   26187.71398431  .00000296  00000+0  81943-4 0  9996
2 43482  86.4470  80.1970 0002231  83.8954 276.2501 14.43282126427944
IRIDIUM 160             
1 43569U 18061A   26187.66530544  .00000145  00000+0  44583-4 0  9997
2 43569  86.3944  48.6510 0002282  85.6549 274.4907 14.34218353416163
IRIDIUM 166             
1 43570U 18061B   26187.69067583  .00000042  00000+0  80105-5 0  9997
2 43570  86.3944  48.5907 0002232  89.3092 270.8360 14.34218040416192
IRIDIUM 158             
1 43571U 18061C   26187.65896185  .00000186  00000+0  59249-4 0  9995
2 43571  86.3943  48.6137 0002132  85.1147 275.0292 14.34217564416159
IRIDIUM 165             
1 43572U 18061D   26187.68433126  .00000113  00000+0  33268-4 0  9994
2 43572  86.3945  48.6499 0002183  89.8150 270.3296 14.34218995416188
IRIDIUM 155             
1 43573U 18061E   26187.64627493  .00000245  00000+0  80424-4 0  9995
2 43573  86.3941  48.5339 0002138  87.7088 272.4353 14.34217313416140
IRIDIUM 154             
1 43574U 18061F   26187.69701551  .00000184  00000+0  58480-4 0  9998
2 43574  86.3945  48.6473 0002293  89.4191 270.7268 14.34219383416203
IRIDIUM 163             
1 43575U 18061G   26187.67798804  .00000206  00000+0  66396-4 0  9994
2 43575  86.3920  48.5668 0002541  95.5073 264.6413 14.34219282416173
