OBJECT_NAME,OBJECT_ID,EPOCH,MEAN_MOTION,ECCENTRICITY,INCLINATION,RA_OF_ASC_NODE,ARG_OF_PERICENTER,MEAN_ANOMALY,EPHEMERIS_TYPE,CLASSIFICATION_TYPE,NORAD_CAT_ID,ELEMENT_SET_NO,REV_AT_EPOCH,BSTAR,MEAN_MOTION_DOT,MEAN_MOTION_DDOT
IRIDIUM 138,2017-083B,2026-07-06T20:26:23.051616,14.34218277,.0002101,86.3995,313.4929,89.4730,270.6707,0,U,43071,999,44695,.15106E-4,.62E-6,0
IRIDIUM 116,2017-083C,2026-07-06T09:37:55.096032,14.34218745,.0002322,86.3980,313.9683,100.6789,259.4668,0,U,43072,999,44692,.11538E-3,.343E-5,0
IRIDIUM 130,2017-083D,2026-07-06T20:35:31.024608,14.34218303,.0002132,86.3989,314.0546,100.4453,259.6983,0,U,43073,999,44693,.24021E-4,.87E-6,0
IRIDIUM 151,2017-083E,2026-07-06T09:56:11.058432,14.34218609,.0002217,86.3984,314.0214,94.1646,265.9803,0,U,43074,999,44689,.31413E-4,.108E-5,0
IRIDIUM 134,2017-083F,2026-07-06T20:53:47.073408,14.34217455,.0002052,86.3981,313.8389,95.4828,264.6602,0,U,43075,999,44692,-.20486E-4,-.38E-6,0
IRIDIUM 137,2017-083G,2026-07-06T09:28:47.109216,14.34218660,.00026403,86.3985,314.1305,97.3462,262.8034,0,U,43076,999,44692,.32507554E-4,.111E-5,0
IRIDIUM 141,2017-083H,2026-07-06T09:19:39.128448,14.34218071,.00021808,86.3980,313.9628,91.8895,268.2550,0,U,43077,999,44692,.14973527E-4,.62E-6,0
IRIDIUM 153,2017-083J,2026-07-06T16:33:07.297056,14.34218731,.0002113,86.3964,282.3175,93.2382,266.9056,0,U,43078,999,44807,.91792E-4,.277E-5,0
IRIDIUM 131,2017-083K,2026-07-06T20:44:39.120288,14.34217791,.0002121,86.3984,313.9514,93.3240,266.8199,0,U,43079,999,44692,-.32544E-5,.11E-6,0
IRIDIUM 144,2018-030A,2026-07-06T16:42:15.382368,14.34218132,.0002299,86.3964,282.2436,98.0245,262.1211,0,U,43249,999,43293,.28618E-4,.1E-5,0
IRIDIUM 149,2018-030B,2026-07-06T16:51:23.287968,14.34218704,.0002265,86.3961,282.2075,93.5688,266.5767,0,U,43250,999,43295,.31397E-4,.108E-5,0
IRIDIUM 157,2018-030C,2026-07-06T17:18:47.327040,14.34218420,.0002256,86.3966,282.2535,95.4380,264.7073,0,U,43251,999,43293,.24201E-4,.88E-6,0
IRIDIUM 140,2018-030D,2026-07-06T16:05:43.215648,14.34219087,.0002229,86.3963,282.2869,95.9499,264.1951,0,U,43252,999,43298,.44974E-4,.146E-5,0
IRIDIUM 145,2018-030E,2026-07-06T17:27:54.844704,14.34216712,.0002364,86.3964,282.2354,102.9496,257.1964,0,U,43253,999,43292,.32404E-4,.111E-5,0
IRIDIUM 146,2018-030F,2026-07-06T18:40:59.268000,14.34218735,.0002329,86.3962,282.2262,98.0232,262.1229,0,U,43254,999,43294,.26666E-4,.94E-6,0
IRIDIUM 148,2018-030G,2026-07-06T16:14:51.397728,14.34217543,.000234,86.3966,282.3122,94.9557,265.1906,0,U,43255,999,43296,.62416E-4,.195E-5,0
IRIDIUM 142,2018-030H,2026-07-06T15:29:11.315040,14.34218923,.0002369,86.3960,282.2135,98.9410,261.2054,0,U,43256,999,43292,.91602E-4,.276E-5,0
IRIDIUM 150,2018-030J,2026-07-06T16:23:59.297280,14.34218642,.0002222,86.3964,282.3148,96.4536,263.6913,0,U,43257,999,43295,.32293E-4,.11E-5,0
IRIDIUM 143,2018-030K,2026-07-06T17:37:03.235008,14.34217676,.000227,86.3968,282.3869,97.7894,262.3560,0,U,43258,999,43289,.35732E-4,.12E-5,0
IRIDIUM 161,2018-047C,2026-07-06T17:17:12.571296,14.43283247,.0002389,86.4471,80.3035,79.2434,280.9035,0,U,43478,999,42795,.7509E-4,.273E-5,0
IRIDIUM 152,2018-047D,2026-07-06T20:18:43.003584,14.34217891,.0002188,86.3947,80.1122,81.9212,278.2232,0,U,43479,999,42530,.70645E-4,.218E-5,0
IRIDIUM 147,2018-047E,2026-07-06T17:06:53.834976,14.34217455,.0002281,86.3948,80.1733,87.9808,272.1649,0,U,43480,999,42528,.69817E-4,.215E-5,0
IRIDIUM 110,2018-047F,2026-07-06T17:16:02.116416,14.34218959,.0002313,86.3950,80.2631,76.3409,283.8044,0,U,43481,999,42527,.76782E-4,.235E-5,0
IRIDIUM 162,2018-047G,2026-07-06T17:08:08.244384,14.43282126,.0002231,86.4470,80.1970,83.8954,276.2501,0,U,43482,999,42794,.81943E-4,.296E-5,0
IRIDIUM 160,2018-061A,2026-07-06T15:58:02.390016,14.34218353,.0002282,86.3944,48.6510,85.6549,274.4907,0,U,43569,999,41616,.44583E-4,.145E-5,0
IRIDIUM 166,2018-061B,2026-07-06T16:34:34.391712,14.34218040,.0002232,86.3944,48.5907,89.3092,270.8360,0,U,43570,999,41619,.80105E-5,.42E-6,0
IRIDIUM 158,2018-061C,2026-07-06T15:48:54.303840,14.34217564,.0002132,86.3943,48.6137,85.1147,275.0292,0,U,43571,999,41615,.59249E-4,.186E-5,0
IRIDIUM 165,2018-061D,2026-07-06T16:25:26.220864,14.34218995,.0002183,86.3945,48.6499,89.8150,270.3296,0,U,43572,999,41618,.33268E-4,.113E-5,0
IRIDIUM 155,2018-061E,2026-07-06T15:30:38.153952,14.34217313,.0002138,86.3941,48.5339,87.7088,272.4353,0,U,43573,999,41614,.80424E-4,.245E-5,0
IRIDIUM 154,2018-061F,2026-07-06T16:43:42.140064,14.34219383,.0002293,86.3945,48.6473,89.4191,270.7268,0,U,43574,999,41620,.5848E-4,.184E-5,0
IRIDIUM 163,2018-061G,2026-07-06T16:16:18.166656,14.34219282,.0002541,86.3920,48.5668,95.5073,264.6413,0,U,43575,999,41617,.66396E-4,.206E-5,0
